start=new Date('2021-12-15T00:00:00.000Z').valueOf();
sats=[{"TLE_LINE1":"1 44959U 20001AX  21348.53451867 -.00000140  00000-0  94741-5 0  9997","MEAN_MOTION":"15.06390027","OBJECT_ID":"2020-001AX","RA_OF_ASC_NODE":"47.5920","TIME_SYSTEM":"UTC","EPOCH":"2021-12-14T12:49:42.413088","COUNTRY_CODE":"US","PERIOD":"95.593","INCLINATION":"53.0557","GP_ID":"191693342","CENTER_NAME":"EARTH","MEAN_ANOMALY":"289.9179","FILE":"3240057","DECAY_DATE":null,"NORAD_CAT_ID":"44959","REV_AT_EPOCH":"10736","ECCENTRICITY":"0.00012290","OBJECT_TYPE":"PAYLOAD","SEMIMAJOR_AXIS":"6925.379","CLASSIFICATION_TYPE":"U","EPHEMERIS_TYPE":"0","REF_FRAME":"TEME","MEAN_ELEMENT_THEORY":"SGP4","APOAPSIS":"548.095","MEAN_MOTION_DDOT":"0.0000000000000","SITE":"AFETR","TLE_LINE2":"2 44959  53.0557  47.5920 0001229  70.1943 289.9179 15.06390027107368","ELEMENT_SET_NO":"999","LAUNCH_DATE":"2020-01-07","BSTAR":"0.00000947410000","RCS_SIZE":"LARGE","OBJECT_NAME":"STARLINK-1076","ARG_OF_PERICENTER":"70.1943","MEAN_MOTION_DOT":"-0.00000140","PERIAPSIS":"546.393"},{"PERIOD":"95.592","INCLINATION":"53.0562","EPOCH":"2021-12-14T13:00:17.626752","COUNTRY_CODE":"US","TIME_SYSTEM":"UTC","MEAN_MOTION":"15.06404230","OBJECT_ID":"2020-001AZ","RA_OF_ASC_NODE":"47.5499","TLE_LINE1":"1 44961U 20001AZ  21348.54187068  .00001289  00000-0  10540-3 0  9997","REV_AT_EPOCH":"10737","NORAD_CAT_ID":"44961","ECCENTRICITY":"0.00013110","FILE":"3240057","MEAN_ANOMALY":"300.0172","DECAY_DATE":null,"GP_ID":"191692590","CENTER_NAME":"EARTH","MEAN_MOTION_DDOT":"0.0000000000000","ELEMENT_SET_NO":"999","SITE":"AFETR","TLE_LINE2":"2 44961  53.0562  47.5499 0001311  60.0947 300.0172 15.06404230107373","MEAN_ELEMENT_THEORY":"SGP4","REF_FRAME":"TEME","APOAPSIS":"548.109","SEMIMAJOR_AXIS":"6925.336","CLASSIFICATION_TYPE":"U","EPHEMERIS_TYPE":"0","OBJECT_TYPE":"PAYLOAD","ARG_OF_PERICENTER":"60.0947","OBJECT_NAME":"STARLINK-1080","MEAN_MOTION_DOT":"0.00001289","PERIAPSIS":"546.293","RCS_SIZE":"LARGE","BSTAR":"0.00010540000000","LAUNCH_DATE":"2020-01-07"},{"LAUNCH_DATE":"2020-01-07","PERIAPSIS":"539.127","MEAN_MOTION_DOT":"0.00004072","ARG_OF_PERICENTER":"127.8118","OBJECT_NAME":"STARLINK-1085","RCS_SIZE":"LARGE","BSTAR":"0.00027350000000","SEMIMAJOR_AXIS":"6917.772","EPHEMERIS_TYPE":"0","CLASSIFICATION_TYPE":"U","OBJECT_TYPE":"PAYLOAD","ELEMENT_SET_NO":"999","TLE_LINE2":"2 44963  53.0010  43.0265 0000738 127.8118 232.2939 15.08875317108142","SITE":"AFETR","MEAN_MOTION_DDOT":"0.0000000000000","APOAPSIS":"540.148","MEAN_ELEMENT_THEORY":"SGP4","REF_FRAME":"TEME","DECAY_DATE":null,"FILE":"3240057","MEAN_ANOMALY":"232.2939","GP_ID":"191692840","CENTER_NAME":"EARTH","ECCENTRICITY":"0.00007380","REV_AT_EPOCH":"10814","NORAD_CAT_ID":"44963","RA_OF_ASC_NODE":"43.0265","MEAN_MOTION":"15.08875317","OBJECT_ID":"2020-001BB","TLE_LINE1":"1 44963U 20001BB  21348.50837049  .00004072  00000-0  27350-3 0  9996","INCLINATION":"53.0010","PERIOD":"95.435","COUNTRY_CODE":"US","EPOCH":"2021-12-14T12:12:03.210336","TIME_SYSTEM":"UTC"},{"MEAN_MOTION_DOT":"-0.00000191","PERIAPSIS":"546.306","ARG_OF_PERICENTER":"81.4166","OBJECT_NAME":"STARLINK-1086","RCS_SIZE":"LARGE","BSTAR":"0.00000609700000","LAUNCH_DATE":"2020-01-07","ELEMENT_SET_NO":"999","TLE_LINE2":"2 44964  53.0548  48.0124 0001318  81.4166 278.6972 15.06398269107358","SITE":"AFETR","MEAN_MOTION_DDOT":"0.0000000000000","APOAPSIS":"548.132","MEAN_ELEMENT_THEORY":"SGP4","REF_FRAME":"TEME","CLASSIFICATION_TYPE":"U","SEMIMAJOR_AXIS":"6925.354","EPHEMERIS_TYPE":"0","OBJECT_TYPE":"PAYLOAD","ECCENTRICITY":"0.00013180","REV_AT_EPOCH":"10735","NORAD_CAT_ID":"44964","DECAY_DATE":null,"FILE":"3240057","MEAN_ANOMALY":"278.6972","GP_ID":"191693092","CENTER_NAME":"EARTH","INCLINATION":"53.0548","PERIOD":"95.592","EPOCH":"2021-12-14T10:31:41.206368","COUNTRY_CODE":"US","TIME_SYSTEM":"UTC","OBJECT_ID":"2020-001BC","RA_OF_ASC_NODE":"48.0124","MEAN_MOTION":"15.06398269","TLE_LINE1":"1 44964U 20001BC  21348.43867137 -.00000191  00000-0  60970-5 0  9996"},{"SEMIMAJOR_AXIS":"6925.334","CLASSIFICATION_TYPE":"U","EPHEMERIS_TYPE":"0","OBJECT_TYPE":"PAYLOAD","ELEMENT_SET_NO":"999","SITE":"AFETR","TLE_LINE2":"2 44966  53.0559  47.9112 0000980  77.5591 282.5508 15.06404824107353","MEAN_MOTION_DDOT":"0.0000000000000","APOAPSIS":"547.877","REF_FRAME":"TEME","MEAN_ELEMENT_THEORY":"SGP4","LAUNCH_DATE":"2020-01-07","MEAN_MOTION_DOT":"0.00001206","PERIAPSIS":"546.520","ARG_OF_PERICENTER":"77.5591","OBJECT_NAME":"STARLINK-1088","RCS_SIZE":"LARGE","BSTAR":"0.00009983000000","MEAN_MOTION":"15.06404824","OBJECT_ID":"2020-001BE","RA_OF_ASC_NODE":"47.9112","TLE_LINE1":"1 44966U 20001BE  21348.46078513  .00001206  00000-0  99830-4 0  9996","PERIOD":"95.592","INCLINATION":"53.0559","EPOCH":"2021-12-14T11:03:31.835232","COUNTRY_CODE":"US","TIME_SYSTEM":"UTC","DECAY_DATE":null,"FILE":"3240057","MEAN_ANOMALY":"282.5508","CENTER_NAME":"EARTH","GP_ID":"191693842","ECCENTRICITY":"0.00009800","REV_AT_EPOCH":"10735","NORAD_CAT_ID":"44966"},{"CENTER_NAME":"EARTH","GP_ID":"191700857","FILE":"3240232","MEAN_ANOMALY":"292.5833","DECAY_DATE":null,"REV_AT_EPOCH":"10737","NORAD_CAT_ID":"44967","ECCENTRICITY":"0.00021000","TLE_LINE1":"1 44967U 20001BF  21348.54923375 -.00012129  00000-0 -79548-3 0  9992","OBJECT_ID":"2020-001BF","MEAN_MOTION":"15.06456238","RA_OF_ASC_NODE":"47.5211","COUNTRY_CODE":"US","EPOCH":"2021-12-14T13:10:53.796000","TIME_SYSTEM":"UTC","INCLINATION":"53.0563","PERIOD":"95.589","LAUNCH_DATE":"2020-01-07","RCS_SIZE":"LARGE","BSTAR":"-0.00079548000000","ARG_OF_PERICENTER":"67.5378","OBJECT_NAME":"STARLINK-1089","MEAN_MOTION_DOT":"-0.00012129","PERIAPSIS":"545.587","OBJECT_TYPE":"PAYLOAD","SEMIMAJOR_AXIS":"6925.176","CLASSIFICATION_TYPE":"U","EPHEMERIS_TYPE":"0","REF_FRAME":"TEME","MEAN_ELEMENT_THEORY":"SGP4","APOAPSIS":"548.495","MEAN_MOTION_DDOT":"0.0000000000000","ELEMENT_SET_NO":"999","TLE_LINE2":"2 44967  53.0563  47.5211 0002100  67.5378 292.5833 15.06456238107373","SITE":"AFETR"},{"ELEMENT_SET_NO":"999","SITE":"AFETR","TLE_LINE2":"2 44968  53.0556  47.5335 0001588  66.9241 293.1916 15.06393173107371","MEAN_MOTION_DDOT":"0.0000000000000","APOAPSIS":"548.334","REF_FRAME":"TEME","MEAN_ELEMENT_THEORY":"SGP4","CLASSIFICATION_TYPE":"U","SEMIMAJOR_AXIS":"6925.369","EPHEMERIS_TYPE":"0","OBJECT_TYPE":"PAYLOAD","MEAN_MOTION_DOT":"-0.00000145","PERIAPSIS":"546.135","ARG_OF_PERICENTER":"66.9241","OBJECT_NAME":"STARLINK-1090","RCS_SIZE":"LARGE","BSTAR":"0.00000919380000","LAUNCH_DATE":"2020-01-07","INCLINATION":"53.0556","PERIOD":"95.593","EPOCH":"2021-12-14T13:05:36.981024","COUNTRY_CODE":"US","TIME_SYSTEM":"UTC","MEAN_MOTION":"15.06393173","OBJECT_ID":"2020-001BG","RA_OF_ASC_NODE":"47.5335","TLE_LINE1":"1 44968U 20001BG  21348.54556691 -.00000145  00000-0  91938-5 0  9999","ECCENTRICITY":"0.00015880","REV_AT_EPOCH":"10737","NORAD_CAT_ID":"44968","DECAY_DATE":null,"FILE":"3240232","MEAN_ANOMALY":"293.1916","CENTER_NAME":"EARTH","GP_ID":"191700863"},{"OBJECT_TYPE":"PAYLOAD","CLASSIFICATION_TYPE":"U","SEMIMAJOR_AXIS":"6925.367","EPHEMERIS_TYPE":"0","MEAN_ELEMENT_THEORY":"SGP4","REF_FRAME":"TEME","APOAPSIS":"548.225","MEAN_MOTION_DDOT":"0.0000000000000","ELEMENT_SET_NO":"999","SITE":"AFETR","TLE_LINE2":"2 44969  53.0559  47.5634 0001433  78.5489 281.5661 15.06393880107361","LAUNCH_DATE":"2020-01-07","RCS_SIZE":"LARGE","BSTAR":"0.00000152550000","ARG_OF_PERICENTER":"78.5489","OBJECT_NAME":"STARLINK-1092","PERIAPSIS":"546.240","MEAN_MOTION_DOT":"-0.00000259","TLE_LINE1":"1 44969U 20001BH  21348.53819768 -.00000259  00000-0  15255-5 0  9990","RA_OF_ASC_NODE":"47.5634","MEAN_MOTION":"15.06393880","OBJECT_ID":"2020-001BH","COUNTRY_CODE":"US","EPOCH":"2021-12-14T12:55:00.279552","TIME_SYSTEM":"UTC","PERIOD":"95.593","INCLINATION":"53.0559","CENTER_NAME":"EARTH","GP_ID":"191693592","FILE":"3240057","MEAN_ANOMALY":"281.5661","DECAY_DATE":null,"REV_AT_EPOCH":"10736","NORAD_CAT_ID":"44969","ECCENTRICITY":"0.00014330"},{"ELEMENT_SET_NO":"999","TLE_LINE2":"2 44970  53.0567  47.3758 0001146  79.6056 280.5062 15.06398542107364","SITE":"AFETR","MEAN_MOTION_DDOT":"0.0000000000000","APOAPSIS":"548.012","REF_FRAME":"TEME","MEAN_ELEMENT_THEORY":"SGP4","CLASSIFICATION_TYPE":"U","SEMIMAJOR_AXIS":"6925.353","EPHEMERIS_TYPE":"0","OBJECT_TYPE":"PAYLOAD","MEAN_MOTION_DOT":"-0.00000812","PERIAPSIS":"546.424","ARG_OF_PERICENTER":"79.6056","OBJECT_NAME":"STARLINK-1093","RCS_SIZE":"LARGE","BSTAR":"-0.00003564900000","LAUNCH_DATE":"2020-01-07","INCLINATION":"53.0567","PERIOD":"95.592","COUNTRY_CODE":"US","EPOCH":"2021-12-14T13:58:41.184768","TIME_SYSTEM":"UTC","MEAN_MOTION":"15.06398542","OBJECT_ID":"2020-001BJ","RA_OF_ASC_NODE":"47.3758","TLE_LINE1":"1 44970U 20001BJ  21348.58242112 -.00000812  00000-0 -35649-4 0  9994","ECCENTRICITY":"0.00011460","REV_AT_EPOCH":"10736","NORAD_CAT_ID":"44970","DECAY_DATE":null,"FILE":"3240169","MEAN_ANOMALY":"280.5062","CENTER_NAME":"EARTH","GP_ID":"191699949"},{"DECAY_DATE":null,"MEAN_ANOMALY":"290.9179","FILE":"3240170","GP_ID":"191699970","CENTER_NAME":"EARTH","ECCENTRICITY":"0.00013020","NORAD_CAT_ID":"44972","REV_AT_EPOCH":"10737","OBJECT_ID":"2020-001BL","RA_OF_ASC_NODE":"47.4888","MEAN_MOTION":"15.06393986","TLE_LINE1":"1 44972U 20001BL  21348.55293293 -.00000009  00000-0  18299-4 0  9998","INCLINATION":"53.0550","PERIOD":"95.593","TIME_SYSTEM":"UTC","EPOCH":"2021-12-14T13:16:13.405152","COUNTRY_CODE":"US","LAUNCH_DATE":"2020-01-07","PERIAPSIS":"546.330","MEAN_MOTION_DOT":"-0.00000009","OBJECT_NAME":"STARLINK-1107","ARG_OF_PERICENTER":"69.1950","BSTAR":"0.00001829900000","RCS_SIZE":"LARGE","CLASSIFICATION_TYPE":"U","SEMIMAJOR_AXIS":"6925.367","EPHEMERIS_TYPE":"0","OBJECT_TYPE":"PAYLOAD","SITE":"AFETR","TLE_LINE2":"2 44972  53.0550  47.4888 0001302  69.1950 290.9179 15.06393986107376","ELEMENT_SET_NO":"999","MEAN_MOTION_DDOT":"0.0000000000000","APOAPSIS":"548.134","MEAN_ELEMENT_THEORY":"SGP4","REF_FRAME":"TEME"}];
